ES'HAIL 2               
1 43700U 18090A   21293.52598979  .00000141  00000-0  00000-0 0  9999
2 43700   0.0121 255.7295 0002539 336.8007  11.8532  1.00273374 10627
GEO-KOMPSAT-2A          
1 43823U 18100A   21293.57688531 -.00000347  00000-0  00000-0 0  9995
2 43823   0.0278 317.3714 0002086 286.4997 121.3258  1.00269373 10561
GSAT-11                 
1 43824U 18100B   21293.56438146 -.00000081  00000-0  00000-0 0  9995
2 43824   0.0188 246.3007 0005356 244.5724 175.6044  1.00272376 10454
GSAT-7A                 
1 43864U 18105A   21293.58313444  .00000023  00000-0  00000-0 0  9994
2 43864   0.1034 110.6197 0002556  99.6110  91.7883  1.00270687 10417
COSMOS 2533             
1 43867U 18107A   21293.56507587 -.00000042  00000-0  00000-0 0  9992
2 43867   0.0144 165.7542 0000491 131.8870   5.0575  1.00272986 10368
TJS-3                   
1 43874U 18110A   21293.67617949  .00000055  00000-0  00000+0 0  9992
2 43874   0.0102 280.4045 0000948 273.3090 138.0951  1.00268012 10423
TJS-3 AKM               
1 43917U 18110C   21293.67617949  .00000053  00000-0  00000+0 0  9998
2 43917   0.0214 167.1212 0006731  33.2451 131.5869  1.00272258 10289
CHINASAT 2D (ZX 2D)     
1 43920U 19001A   21291.89597323 -.00000347  00000-0  00000-0 0  9995
2 43920   0.0401   8.6743 0001621   4.2990 107.1911  1.00270204 10284
HELLAS-SAT 4 & SGS-1    
1 44034U 19007A   21293.26577109  .00000148  00000-0  00000-0 0  9999
2 44034   0.0671 126.9260 0005793  38.2839 358.4455  1.00271921 10305
GSAT-31                 
1 44035U 19007B   21293.58868883  .00000122  00000-0  00000-0 0  9999
2 44035   0.0583  93.9092 0004626 144.2589  50.9125  1.00271789  9924
NUSANTARA SATU          
1 44048U 19009A   21292.83222257 -.00000241  00000-0  00000-0 0  9994
2 44048   0.0137 207.5071 0001767   6.1466 260.4626  1.00269274  9702
CHINASAT 6C (ZX 6C)     
1 44067U 19012A   21293.60490531 -.00000340  00000-0  00000-0 0  9997
2 44067   0.0371 260.5247 0003239  14.4744 102.0633  1.00273841  9685
WGS 10 (USA 291)        
1 44071U 19014A   21293.58313444  .00000044  00000-0  00000-0 0  9998
2 44071   0.0137 202.5194 0000389  47.9534  49.0356  1.00270313  9579
TIANLIAN 2-01           
1 44076U 19017A   21293.55257679 -.00000139  00000-0  00000-0 0  9996
2 44076   0.8258 282.3867 0033319 229.2460 156.4407  1.00268691  9555
ARABSAT-6A              
1 44186U 19021A   21293.23983944  .00000149  00000-0  00000-0 0  9999
2 44186   0.0557 324.5579 0005934 273.7312 267.4999  1.00277955  9116
BEIDOU-3 IGSO-1         
1 44204U 19023A   21293.41999593 -.00000222  00000-0  00000-0 0  9992
2 44204  56.2064  55.5631 0023128 186.6300  56.9567  1.00283552  9300
BEIDOU-2 G8             
1 44231U 19027A   21293.57512660 -.00000249  00000-0  00000-0 0  9998
2 44231   0.3423  46.1230 0007543 155.9787 178.7334  1.00274130  9027
YAMAL 601               
1 44307U 19031A   21293.36855000  .00000115  00000-0  00000-0 0  9993
2 44307   0.0216  39.4507 0002038 150.0782  21.3034  1.00277365  8870
AT&T T-16               
1 44333U 19034A   21293.56658031 -.00000118  00000-0  00000-0 0  9996
2 44333   0.0016 188.8523 0000121 334.6198 328.8888  1.00269997  8588
EUTELSAT 7C             
1 44334U 19034B   21293.30691019  .00000045  00000-0  00000-0 0  9990
2 44334   0.0343 251.8304 0003058 300.0593 314.6388  1.00271748  9056
BEIDOU-3 IGSO-2         
1 44337U 19035A   21293.57688531 -.00000101  00000-0  00000-0 0  9992
2 44337  55.0961 173.8705 0020261 180.1829   2.5278  1.00274329  8640
COSMOS 2539             
1 44457U 19048A   21293.06924313  .00000077  00000-0  00000-0 0  9995
2 44457   0.0303 139.9663 0000219 182.8137 102.9186  1.00273348  8172
EDRS-C                  
1 44475U 19049A   21291.83687980  .00000145  00000-0  00000-0 0  9991
2 44475   0.0632 267.9231 0000750 311.1164 140.9761  1.00273858  8130
INTELSAT 39 (IS-39)     
1 44476U 19049B   21293.58313444  .00000030  00000-0  00000-0 0  9990
2 44476   0.0144 262.4284 0000800 160.8281 237.8859  1.00270928  8108
AMOS-17                 
1 44479U 19050A   21293.41021462  .00000106  00000-0  00000-0 0  9997
2 44479   0.0160 260.4043 0002508 311.2202 342.1768  1.00274942  8134
AEHF-5 (USA 292)        
1 44481U 19051A   21293.17285589  .00000071  00000-0  00000-0 0  9997
2 44481   4.9208 305.3800 0004256 243.7430 316.4539  1.00273653  8214
EUTELSAT 5 WEST B       
1 44624U 19067A   21293.37633584 -.00000045  00000-0  00000-0 0  9999
2 44624   0.0873  48.7665 0005219  99.9051  10.8800  1.00272314  7392
MEV-1                   
1 44625U 19067B   21293.37180050 -.00000206  00000-0  00000-0 0  9994
2 44625   0.0485  66.5581 0001107 146.7348 282.1312  1.00270733  7305
TJS-4                   
1 44637U 19070A   21293.55257681 -.00000172  00000-0  00000-0 0  9998
2 44637   0.0730 295.6246 0001816 200.2216 175.8171  1.00267827  7504
BEIDOU-3 IGSO-3         
1 44709U 19073A   21293.35235365 -.00000172  00000-0  00000-0 0  9994
2 44709  57.6468 298.8691 0020101 186.6656 150.3746  1.00279530  7399
TIBA-1                  
1 44800U 19080A   21293.33729968  .00000152  00000-0  00000-0 0  9996
2 44800   0.0617 351.9264 0002428 215.6661 338.3840  1.00274665  7002
INMARSAT GX5            
1 44801U 19080B   21293.41576899  .00000071  00000-0  00000-0 0  9999
2 44801   0.0522 328.4891 0002551 240.2659 341.0097  1.00271504  7050
JCSAT-18 (KACIFIC 1)    
1 44868U 19091A   21293.55882910 -.00000204  00000-0  00000-0 0  9992
2 44868   0.0199 275.7051 0000952 321.6270 143.0847  1.00271444  6966
ELEKTRO-L 3             
1 44903U 19095A   21293.10534904 -.00000102  00000-0  00000-0 0  9991
2 44903   0.0595  38.4802 0001866 202.7277 261.5435  1.00272677  6660
SHIJIAN-20 (SJ-20)      
1 44910U 19097A   21293.61182208 -.00000211  00000-0  00000+0 0  9993
2 44910   0.5669  93.3902 0003093  60.8651 182.7603  1.00283443  6641
TJS-5                   
1 44978U 20002A   21293.51294955 -.00000346  00000-0  00000-0 0  9997
2 44978   0.2393 284.9190 0004954 232.0091 164.4470  1.00269917  6651
GSAT-30                 
1 45026U 20005A   21293.55257681 -.00000168  00000-0  00000-0 0  9996
2 45026   0.0809  95.7330 0002783  22.7510 192.7045  1.00272484  6462
EUTELSAT KONNECT        
1 45027U 20005B   21293.41576899  .00000046  00000-0  00000-0 0  9991
2 45027   0.0563  97.2423 0000115 197.0025 251.7557  1.00270550  7281
JCSAT-17                
1 45245U 20013A   21293.49759871 -.00000328  00000-0  00000-0 0  9997
2 45245   6.3927 344.5057 0003212 213.8393 145.9974  1.00271719  6186
GEO-KOMPSAT-2B          
1 45246U 20013B   21292.68508546 -.00000351  00000-0  00000-0 0  9995
2 45246   0.0131  71.6769 0000866  97.6746 233.9102  1.00268774  6194
BEIDOU-3 G2             
1 45344U 20017A   21293.55257681 -.00000148  00000-0  00000-0 0  9990
2 45344   2.2823 341.2916 0002888 186.6420 140.2480  1.00271295  6202
AEHF-6 (USA 298)        
1 45465U 20022B   21293.51370419 -.00000312  00000-0  00000-0 0  9994
2 45465   6.5028 304.8872 0048556 349.7497  57.2375  1.00270035  5967
BEIDOU-3 G3             
1 45807U 20040A   21293.60934530 -.00000360  00000-0  00000-0 0  9997
2 45807   1.9972 299.3070 0009896 338.2493  81.6111  1.00275953  5036
APSTAR 6D               
1 45863U 20045A   21293.57132837 -.00000321  00000-0  00000-0 0  9997
2 45863   0.0612  89.8500 0002172 100.5207 178.5642  1.00268195  4801
KOREASAT 116            
1 45920U 20048A   21293.51315537 -.00000365  00000-0  00000-0 0  9996
2 45920   0.0274 275.8842 0001413 294.2974 119.9654  1.00269076  4580
EXPRESS 103             
1 45985U 20053A   21292.65321449 -.00000288  00000-0  00000-0 0  9990
2 45985   0.0277 310.3781 0000646 353.9603  55.6789  1.00272397  4585
EXPRESS 80              
1 45986U 20053B   21291.42688234 -.00000147  00000-0  00000-0 0  9997
2 45986   0.0151 325.9555 0001477 302.4771 352.3759  1.00270703  4567
BSAT-4B                 
1 46112U 20056A   21293.51300292 -.00000354  00000-0  00000-0 0  9999
2 46112   0.1098 105.8531 0003149  64.9737 152.9109  1.00274117  4330
MEV-2                   
1 46113U 20056B   21293.42132615 -.00000014  00000-0  00000-0 0  9995
2 46113   0.0490  68.9266 0001068 144.7551 326.1077  1.00271654  4982
GALAXY 30 (G-30)        
1 46114U 20056C   21293.54726722  .00000034  00000-0  00000-0 0  9998
2 46114   0.0189 215.0620 0002072 354.5552 251.6146  1.00272301  4232
GAOFEN 13               
1 46610U 20071A   21293.49285434 -.00000367  00000-0  00000-0 0  9990
2 46610   1.0968 276.1391 0003157 267.4787 140.8155  1.00274540  3863
TIANTONG-1 2            
1 46916U 20082A   21293.48677935 -.00000366  00000-0  00000-0 0  9990
2 46916   4.7054 297.3351 0002233 268.7347 123.2707  1.00274016  3607
LUCAS (JDRS-1)          
1 47202U 20089A   21293.50396589 -.00000239  00000-0  00000-0 0  9991
2 47202   0.0282 129.3484 0001741  76.3169  95.7264  1.00273974  3352
SXM-7                   
1 47240U 20096A   21292.64895236 -.00000029  00000-0  00000-0 0  9995
2 47240   0.0206 244.5506 0001188 127.0357 135.0947  1.00273485  3266
CMS-01                  
1 47256U 20099A   21293.55257681 -.00000169  00000-0  00000-0 0  9997
2 47256   0.1065  95.5605 0007058 156.8130  58.8506  1.00273396  3143
TURKSAT 5A              
1 47306U 21001A   21292.96716253  .00000149  00000-0  00000-0 0  9993
2 47306   0.0200 170.5234 0000126 128.8266 108.4170  1.00271958  2914
TIANTONG-1 3            
1 47321U 21003A   21293.55257679 -.00000166  00000-0  00000-0 0  9990
2 47321   4.9567 308.7866 0003645 264.7404  96.1610  1.00270597  2920
TJS-6                   
1 47613U 21010A   21293.50802569  .00000039  00000-0  00000-0 0  9999
2 47613   0.4078 281.7328 0002302 337.4579 131.3533  1.00273984  2788
SBIRS GEO-5 (USA 315)   
1 48618U 21042A   21293.47480132 -.00000255  00000-0  00000-0 0  9995
2 48618   7.7532 327.1517 0002752 226.6022 326.7534  1.00543775  1705
